SAR-LUPE 2              
1 31797U 07030A   26185.56817448  .00051890  00000+0  83618-3 0  9993
2 31797  98.1061 292.1913 0003511 222.8275 137.2703 15.52776481 59631
SAPPHIRE                
1 39088U 13009C   26185.45114409  .00000126  00000+0  58819-4 0  9994
2 39088  98.4269   4.4975 0010901 191.5644 168.5293 14.35245428699059
PRAETORIAN SDA_602      
1 65565U 25203A   26185.44571297  .00000112  00000+0  90690-4 0  9991
2 65565  81.3033 354.7862 0006726 142.8097 217.3526 13.83887405 41080
PRAETORIAN SDA_603      
1 65566U 25203B   26185.40227586  .00000181  00000+0  15202-3 0  9998
2 65566  81.3040 354.7486 0010342 141.4509 218.7388 13.83961822 41080
PRAETORIAN SDA_604      
1 65567U 25203C   26185.21570131  .00000076  00000+0  58782-4 0  9999
2 65567  81.3057 355.3598 0006178 146.9042 213.2501 13.83049410 41036
PRAETORIAN SDA_605      
1 65568U 25203D   26183.87446639  .00000022  00000+0  92536-5 0  9992
2 65568  81.3021 356.2472 0008905 142.0754 218.1031 13.83435094 40865
PRAETORIAN SDA_606      
1 65569U 25203E   26185.45109619  .00000060  00000+0  44090-4 0  9996
2 65569  81.3059 355.0234 0006826 141.1976 218.9672 13.83199398 41073
PRAETORIAN SDA_607      
1 65570U 25203F   26185.44590645 -.00021139  00000+0 -19086-1 0  9996
2 65570  81.3013 354.6581 0009846 141.8344 218.3511 13.84011017 41096
PRAETORIAN SDA_608      
1 65571U 25203G   26185.42878447  .00000090  00000+0  70478-4 0  9990
2 65571  81.3011 354.8436 0006687 145.4953 214.6639 13.83818764 41073
PRAETORIAN SDA_609      
1 65572U 25203H   26185.42881043  .00000127  00000+0  10326-3 0  9993
2 65572  81.3051 354.8237 0007607 140.4154 219.7559 13.84211088 41083
PRAETORIAN SDA_610      
1 65573U 25203J   26185.40913167  .00000058  00000+0  41715-4 0  9995
2 65573  81.3012 354.8214 0007466 145.2321 214.9324 13.83769231 41071
PRAETORIAN SDA_611      
1 65574U 25203K   26184.90932917  .00000211  00000+0  18155-3 0  9996
2 65574  81.3019 355.4610 0006207 150.1313 210.0198 13.83310892 40995
PRAETORIAN SDA_612      
1 65575U 25203L   26185.45599156  .00000114  00000+0  90371-4 0  9995
2 65575  81.3031 354.4997 0010021 141.2160 218.9718 13.85040549 41107
PRAETORIAN SDA_613      
1 65576U 25203M   26185.21208005  .00000093  00000+0  74842-4 0  9991
2 65576  81.3003 355.1915 0006438 140.2274 219.9355 13.82767011 41034
PRAETORIAN SDA_614      
1 65577U 25203N   26185.23167009  .00000021  00000+0  76795-5 0  9993
2 65577  81.3017 354.7897 0007903 139.2732 220.9017 13.84778251 41070
PRAETORIAN SDA_615      
1 65578U 25203P   26185.21275488  .00000199  00000+0  16730-3 0  9990
2 65578  81.3027 354.7821 0009780 140.5090 219.6782 13.84438232 41061
PRAETORIAN SDA_616      
1 65579U 25203Q   26185.41536553  .00000228  00000+0  19673-3 0  9998
2 65579  81.3067 355.1503 0006146 147.4430 212.7107 13.83269959 41067
PRAETORIAN SDA_617      
1 65580U 25203R   26184.93207352  .00000056  00000+0  40361-4 0  9996
2 65580  81.3040 355.4264 0008143 140.5775 219.5975 13.83151320 41006
PRAETORIAN SDA_618      
1 65581U 25203S   26185.46754072  .00000201  00000+0  16939-3 0  9997
2 65581  81.3025 354.4743 0010530 143.4805 216.7072 13.84225092 41107
PRAETORIAN SDA_619      
1 65582U 25203T   26184.93326948  .00000103  00000+0  82227-4 0  9991
2 65582  81.3046 355.2879 0008957 141.8796 218.2996 13.83806624 41647
PRAETORIAN SDA_620      
1 65583U 25203U   26185.47013537  .00000233  00000+0  20138-3 0  9995
2 65583  81.3032 354.8146 0008366 137.1733 223.0076 13.83304184 41083
PRAETORIAN SDA_621      
1 65584U 25203V   26185.22430706  .00000085  00000+0  66047-4 0  9995
2 65584  81.3025 354.9530 0008203 135.0434 225.1389 13.83803139 41050
PRAETORIAN SDA_601      
1 65585U 25203W   26185.41974734  .00000026  00000+0  12441-4 0  9995
2 65585  81.3047 355.0869 0006206 150.3130 209.8379 13.83168947 41066
VICTUS HAZE PUMA        
1 69646U 26142A   26185.65206014  .00007240  00000+0  32941-3 0  9996
2 69646  97.4475  83.0776 0025672 305.3426  54.5409 15.20722807  2323
