OBJECT_NAME,OBJECT_ID,EPOCH,MEAN_MOTION,ECCENTRICITY,INCLINATION,RA_OF_ASC_NODE,ARG_OF_PERICENTER,MEAN_ANOMALY,EPHEMERIS_TYPE,CLASSIFICATION_TYPE,NORAD_CAT_ID,ELEMENT_SET_NO,REV_AT_EPOCH,BSTAR,MEAN_MOTION_DOT,MEAN_MOTION_DDOT
SAR-LUPE 2,2007-030A,2026-07-04T13:38:10.275072,15.52776481,.00035113,98.1061,292.1913,222.8275,137.2703,0,U,31797,999,5963,.83617633E-3,.5189E-3,0
SAPPHIRE,2013-009C,2026-07-04T10:49:38.849376,14.35245428,.00109018,98.4269,4.4975,191.5644,168.5293,0,U,39088,999,69905,.58819404E-4,.126E-5,0
PRAETORIAN SDA_602,2025-203A,2026-07-04T10:41:49.600608,13.83887405,.00067262,81.3033,354.7862,142.8097,217.3526,0,U,65565,999,4108,.90689895E-4,.112E-5,0
PRAETORIAN SDA_603,2025-203B,2026-07-04T09:39:16.634304,13.83961822,.00103423,81.3040,354.7486,141.4509,218.7388,0,U,65566,999,4108,.15202302E-3,.181E-5,0
PRAETORIAN SDA_604,2025-203C,2026-07-04T05:10:36.593184,13.83049410,.00061789,81.3057,355.3598,146.9042,213.2501,0,U,65567,999,4103,.5878189E-4,.76E-6,0
PRAETORIAN SDA_605,2025-203D,2026-07-02T20:59:13.896096,13.83435094,.0008905,81.3021,356.2472,142.0754,218.1031,0,U,65568,999,4086,.9253594E-5,.22E-6,0
PRAETORIAN SDA_606,2025-203E,2026-07-04T10:49:34.710816,13.83199398,.00068269,81.3059,355.0234,141.1976,218.9672,0,U,65569,999,4107,.44089899E-4,.6E-6,0
PRAETORIAN SDA_607,2025-203F,2026-07-04T10:42:06.317280,13.84011017,.00098466,81.3013,354.6581,141.8344,218.3511,0,U,65570,999,4109,-.1908623E-1,-.21139E-3,0
PRAETORIAN SDA_608,2025-203G,2026-07-04T10:17:26.978208,13.83818764,.00066877,81.3011,354.8436,145.4953,214.6639,0,U,65571,999,4107,.7047832E-4,.9E-6,0
PRAETORIAN SDA_609,2025-203H,2026-07-04T10:17:29.221152,13.84211088,.00076075,81.3051,354.8237,140.4154,219.7559,0,U,65572,999,4108,.10325732E-3,.127E-5,0
PRAETORIAN SDA_610,2025-203J,2026-07-04T09:49:08.976288,13.83769231,.0007466,81.3012,354.8214,145.2321,214.9324,0,U,65573,999,4107,.41714532E-4,.58E-6,0
PRAETORIAN SDA_611,2025-203K,2026-07-03T21:49:26.040288,13.83310892,.00062076,81.3019,355.4610,150.1313,210.0198,0,U,65574,999,4099,.18154522E-3,.211E-5,0
PRAETORIAN SDA_612,2025-203L,2026-07-04T10:56:37.670784,13.85040549,.00100218,81.3031,354.4997,141.2160,218.9718,0,U,65575,999,4110,.9037089E-4,.114E-5,0
PRAETORIAN SDA_613,2025-203M,2026-07-04T05:05:23.716320,13.82767011,.00064383,81.3003,355.1915,140.2274,219.9355,0,U,65576,999,4103,.74842151E-4,.93E-6,0
PRAETORIAN SDA_614,2025-203N,2026-07-04T05:33:36.295776,13.84778251,.0007903,81.3017,354.7897,139.2732,220.9017,0,U,65577,999,4107,.7679477E-5,.21E-6,0
PRAETORIAN SDA_615,2025-203P,2026-07-04T05:06:22.021632,13.84438232,.00097808,81.3027,354.7821,140.5090,219.6782,0,U,65578,999,4106,.16729921E-3,.199E-5,0
PRAETORIAN SDA_616,2025-203Q,2026-07-04T09:58:07.581792,13.83269959,.00061465,81.3067,355.1503,147.4430,212.7107,0,U,65579,999,4106,.19673066E-3,.228E-5,0
PRAETORIAN SDA_617,2025-203R,2026-07-03T22:22:11.152128,13.83151320,.00081435,81.3040,355.4264,140.5775,219.5975,0,U,65580,999,4100,.40361016E-4,.56E-6,0
PRAETORIAN SDA_618,2025-203S,2026-07-04T11:13:15.518208,13.84225092,.00105307,81.3025,354.4743,143.4805,216.7072,0,U,65581,999,4110,.16939286E-3,.201E-5,0
PRAETORIAN SDA_619,2025-203T,2026-07-03T22:23:54.483072,13.83806624,.00089574,81.3046,355.2879,141.8796,218.2996,0,U,65582,999,4164,.82227261E-4,.103E-5,0
PRAETORIAN SDA_620,2025-203U,2026-07-04T11:16:59.695968,13.83304184,.00083669,81.3032,354.8146,137.1733,223.0076,0,U,65583,999,4108,.2013816E-3,.233E-5,0
PRAETORIAN SDA_621,2025-203V,2026-07-04T05:23:00.129984,13.83803139,.00082038,81.3025,354.9530,135.0434,225.1389,0,U,65584,999,4105,.66047015E-4,.85E-6,0
PRAETORIAN SDA_601,2025-203W,2026-07-04T10:04:26.170176,13.83168947,.00062063,81.3047,355.0869,150.3130,209.8379,0,U,65585,999,4106,.12440868E-4,.26E-6,0
VICTUS HAZE PUMA,2026-142A,2026-07-04T15:38:57.996096,15.20722807,.00256728,97.4475,83.0776,305.3426,54.5409,0,U,69646,999,232,.32941178E-3,.724E-4,0
